STARLINK-2271           
1 48008U 21024AH  22016.91667824  .00005179  00000+0  36647-3 0  9993
2 48008  53.0527 192.7049 0002919  74.4861 340.8174 15.06387894  3604
STARLINK-2153           
1 48009U 21024AJ  22017.09773135 -.00001388  00000+0 -74264-4 0  9995
2 48009  53.0552 266.8698 0001812  55.7988 304.3173 15.06397305 46338
STARLINK-2226           
1 48010U 21024AK  22017.11064129 -.00001540  00000+0 -84527-4 0  9999
2 48010  53.0524 286.8468 0001779  62.9741 297.1430 15.06388113 46045
STARLINK-2272           
1 48011U 21024AL  22016.93460455 -.00000905  00000+0 -41818-4 0  9991
2 48011  53.0561 267.6367 0002082  74.1506 285.9713 15.06398216 46835
STARLINK-2216           
1 48012U 21024AM  22017.06725592  .00154895  00000+0  96176-2 0  9994
2 48012  53.0546 241.9890 0001778  57.1473 302.9688 15.08538686 46683
STARLINK-2243           
1 48013U 21024AN  22016.89085984  .00001910  00000+0  14706-3 0  9998
2 48013  53.0529 252.8424 0002213  70.0037 290.1190 15.06411992 46981
STARLINK-2283           
1 48014U 21024AP  22017.00001157  .00043051  00000+0  29579-2 0  9998
2 48014  53.0513 216.2523 0002251  69.6890  11.8684 15.05554389 47021
STARLINK-2284           
1 48016U 21024AR  22017.25001157 -.00008929  00000+0 -58117-3 0  9995
2 48016  53.0522 201.2120 0002087  70.5036 298.3883 15.06404954 47251
STARLINK-2239           
1 48017U 21024AS  22017.07090081  .00035687  00000+0  13208-2 0  9990
2 48017  53.0510 264.4907 0001719  42.6208 317.4924 15.27364111 46368
STARLINK-2282           
1 48018U 21024AT  22017.10553863 -.00000545  00000+0 -17697-4 0  9992
2 48018  53.0546 271.8673 0002071  59.7712 300.3481 15.06404740 46269
STARLINK-2285           
1 48019U 21024AU  22016.94153790 -.00000126  00000+0  10426-4 0  9996
2 48019  53.0550 262.6172 0001984  69.6997 290.4205 15.06404868 46842
STARLINK-2294           
1 48020U 21024AV  22017.00001157  .00046589  00000+0  31281-2 0  9997
2 48020  53.0518 217.3360 0002154  69.8585 220.1025 15.06374260 47011
STARLINK-2301           
1 48021U 21024AW  22016.93050245  .00003437  00000+0  24947-3 0  9998
2 48021  53.0548 222.6566 0002562  70.6006 289.5260 15.06408329 47411
STARLINK-2298           
1 48022U 21024AX  22017.13041468 -.00000290  00000+0 -58077-6 0  9999
2 48022  53.0556 281.7666 0002205  55.6575 304.4623 15.06407069 46123
STARLINK-2292           
1 48023U 21024AY  22016.88071301  .00000231  00000+0  34389-4 0  9991
2 48023  53.0549 282.8755 0002030  41.2455 318.8688 15.06397555 46613
STARLINK-2278           
1 48026U 21024BB  22016.92632993  .00000579  00000+0  57784-4 0  9998
2 48026  53.0482 287.6940 0002120  69.9548 290.1669 15.06401599 46010
STARLINK-2300           
1 48027U 21024BC  22016.95259696 -.00000074  00000+0  13967-4 0  9993
2 48027  53.0547 262.5608 0002128  69.3911 290.7307 15.06404931 46841
STARLINK-2264           
1 48028U 21024BD  22017.00001157  .00029580  00000+0  19969-2 0  9996
2 48028  53.0539 217.3477 0002003  65.8146 124.1272 15.06389569 47018
STARLINK-2299           
1 48029U 21024BE  22016.92494680 -.00001877  00000+0 -10711-3 0  9992
2 48029  53.0536 282.6978 0001957  69.6317 290.4882 15.06404949 46626
STARLINK-2268           
1 48030U 21024BF  22017.08482694 -.00003232  00000+0 -19815-3 0  9995
2 48030  53.0548 286.9538 0001938  62.5361 297.5825 15.06398704 46042
STARLINK-2267           
1 48031U 21024BG  22017.00001157 -.00002722  00000+0 -16774-3 0  9993
2 48031  53.0542 172.3346 0001355  75.0229 341.0299 15.05581048 47648
STARLINK-2286           
1 48033U 21024BJ  22017.11293983 -.00001412  00000+0 -75908-4 0  9997
2 48033  53.0581 281.7495 0002426  60.0687 300.0542 15.06398617 46122
STARLINK-2288           
1 48034U 21024BK  22016.93231960  .00000251  00000+0  35722-4 0  9992
2 48034  53.0546 282.6555 0001887  74.8621 285.2577 15.06405775 46094
STARLINK-2295           
1 48036U 21024BM  22016.93969253  .00000297  00000+0  38839-4 0  9999
2 48036  53.0550 282.6223 0001759  72.2553 287.8628 15.06403466 46626
BCCSAT-1                
1 48041U 21022AK  22016.68980922  .00004418  00000+0  29582-3 0  9994
2 48041  97.5448 279.8187 0014465 297.4005  62.5751 15.07342833 43969
ONEWEB-0115             
1 48042U 21025A   22016.95332027  .00000308  00000+0  80911-3 0  9992
2 48042  87.8913 280.5030 0001262  64.6129 295.5131 13.13467952 41960
ONEWEB-0152             
1 48043U 21025B   22016.73599748 -.00000074  00000+0 -23840-3 0  9994
2 48043  87.8964 280.5538 0001228  76.7046 283.4220 13.13468969 41889
ONEWEB-0153             
1 48044U 21025C   22016.78976182  .00000253  00000+0  65678-3 0  9993
2 48044  87.8896 280.7058 0001623  79.6829 280.4483 13.13471369 41889
ONEWEB-0154             
1 48045U 21025D   22017.09224211  .00000963  00000+0  26029-2 0  9992
2 48045  87.8990 280.5125 0001534  95.3197 264.8107 13.13473216 41895
ONEWEB-0116             
1 48046U 21025E   22016.98245007 -.00000303  00000+0 -86558-3 0  9990
2 48046  87.8987 280.5268 0001668  63.7316 296.3984 13.13470453 42018
ONEWEB-0150             
1 48047U 21025F   22016.80319744  .00000143  00000+0  35705-3 0  9990
2 48047  87.8870 280.5235 0001683  86.9835 273.1487 13.13471386 41885
ONEWEB-0107             
1 48048U 21025G   22016.95780948  .00000184  00000+0  46907-3 0  9996
2 48048  87.8897 280.4905 0001679  98.3522 261.7798 13.13470509 41887
ONEWEB-0101             
1 48049U 21025H   22016.76960160 -.00000053  00000+0 -17998-3 0  9997
2 48049  87.8889 280.5857 0001325  87.8031 272.3250 13.13472283 41839
ONEWEB-0113             
1 48050U 21025J   22016.74495618 -.00000269  00000+0 -77244-3 0  9997
2 48050  87.8982 280.5722 0001480  68.6845 291.4442 13.13471136 41918
ONEWEB-0112             
1 48051U 21025K   22017.11463430  .00000187  00000+0  47723-3 0  9993
2 48051  87.8872 280.4766 0001515  74.0792 286.0504 13.13467903 41988
ONEWEB-0156             
1 48052U 21025L   22016.74272350 -.00000333  00000+0 -94667-3 0  9995
2 48052  87.8988 280.5426 0001583  75.6393 284.4912 13.13468617 41900
ONEWEB-0161             
1 48053U 21025M   22016.79200451  .00000328  00000+0  86183-3 0  9990
2 48053  87.8920 280.5500 0001457  79.7602 280.3692 13.13472623 41843
ONEWEB-0158             
1 48054U 21025N   22016.75614556 -.00000262  00000+0 -75296-3 0  9994
2 48054  87.8980 280.5664 0001547  62.5499 297.5787 13.13472411 41968
ONEWEB-0157             
1 48055U 21025P   22017.08325475 -.00000296  00000+0 -84677-3 0  9991
2 48055  87.8952 280.4930 0001722  90.3455 269.7871 13.13470589 41957
ONEWEB-0162             
1 48056U 21025Q   22016.81665809 -.00000094  00000+0 -29297-3 0  9993
2 48056  87.8900 280.5200 0001757  76.0722 284.0603 13.13468407 41889
ONEWEB-0155             
1 48057U 21025R   22016.76287993 -.00000193  00000+0 -56446-3 0  9998
2 48057  87.8937 280.5500 0001372  75.9632 284.1649 13.13472489 42016
ONEWEB-0149             
1 48058U 21025S   22016.78304893  .00000279  00000+0  72925-3 0  9993
2 48058  87.8975 280.5285 0002204  77.2012 282.9363 13.13470375 41831
ONEWEB-0148             
1 48059U 21025T   22016.82336751 -.00000269  00000+0 -77255-3 0  9999
2 48059  87.8945 280.5255 0002419  90.3889 269.7517 13.13470313 41951
ONEWEB-0160             
1 48060U 21025U   22016.76512595 -.00000200  00000+0 -58187-3 0  9994
2 48060  87.8927 280.5536 0001888  31.4883 328.6359 13.13467238 41898
ONEWEB-0163             
1 48061U 21025V   22016.74942254 -.00000485  00000+0 -13621-2 0  9990
2 48061  87.8993 280.5808 0001691 100.1109 260.0211 13.13468933 42015
ONEWEB-0159             
1 48062U 21025W   22016.73823516 -.00000107  00000+0 -32909-3 0  9991
2 48062  87.8973 280.4972 0001925  95.9083 264.2266 13.13460000 41930
ONEWEB-0164             
1 48063U 21025X   22016.79648177  .00000392  00000+0  10378-2 0  9995
2 48063  87.9002 280.5766 0001205  73.0552 287.0710 13.13468670 41923
ONEWEB-0167             
1 48064U 21025Y   22016.75167032 -.00000350  00000+0 -99309-3 0  9996
2 48064  87.8957 280.5560 0001738  90.0325 270.1003 13.13470321 41904
ONEWEB-0166             
1 48065U 21025Z   22016.77183948 -.00000065  00000+0 -21237-3 0  9991
2 48065  87.8868 280.5521 0001563  85.2171 274.9136 13.13472323 41985
ONEWEB-0151             
1 48066U 21025AA  22016.77406606  .00000001  00000+0 -31788-4 0  9993
2 48066  87.8968 280.5507 0001092  73.2246 286.9003 13.13472714 41922
ONEWEB-0170             
1 48067U 21025AB  22016.78078876  .00000144  00000+0  35849-3 0  9997
2 48067  87.8998 280.5746 0000764  33.0848 327.0329 13.13472342 41888
ONEWEB-0168             
1 48068U 21025AC  22016.76735811 -.00000126  00000+0 -38062-3 0  9997
2 48068  87.8982 280.5647 0001590  82.5445 277.5864 13.13471189 41894
ONEWEB-0173             
1 48069U 21025AD  22016.76063704 -.00000216  00000+0 -62709-3 0  9998
2 48069  87.8983 280.5727 0001366 100.0477 260.0806 13.13470736 42135
ONEWEB-0171             
1 48070U 21025AE  22016.79425850  .00003120  00000+0  85078-2 0  9995
2 48070  87.8913 280.5200 0001682  84.0737 276.0584 13.13455690 41958
ONEWEB-0172             
1 48071U 21025AF  22016.77381053 -.00000079  00000+0 -25210-3 0  9995
2 48071  87.8957 280.6383 0001105  92.1790 267.9466 13.13496602 42844
ONEWEB-0174             
1 48072U 21025AG  22016.75838306 -.00000249  00000+0 -71779-3 0  9992
2 48072  87.8927 280.5438 0002424  87.5293 272.6114 13.13468077 42166
ONEWEB-0175             
1 48073U 21025AH  22016.78528334  .00000233  00000+0  60388-3 0  9998
2 48073  87.8887 280.5804 0000997  59.8139 300.3088 13.13469432 41820
ONEWEB-0177             
1 48074U 21025AJ  22016.79871968  .00000248  00000+0  64325-3 0  9995
2 48074  87.8994 280.5621 0001625 108.4392 251.6914 13.13471550 42010
ONEWEB-0178             
1 48075U 21025AK  22016.81551495 -.00000086  00000+0 -27013-3 0  9994
2 48075  87.8924 280.5240 0001532  91.5854 268.5450 13.13474674 42060
